{
  "type": "FeatureCollection",
  "features": [
    {
      "type": "Feature",
      "properties": {
        "norad_id": 29486,
        "name": "GPS BIIRM-2 (PRN 31)",
        "group": "gps-ops",
        "lat": 27.887554679089895,
        "lon": -43.65616128511441,
        "alt_km": 20190.64500477008,
        "timestamp": "2025-12-21T16:47:54.996991+00:00",
        "meta_object_name": "GPS BIIRM-2 (PRN 31)",
        "meta_object_id": "2006-042A",
        "meta_epoch": "2025-12-21T12:25:39.335232",
        "meta_mean_motion": 2.00553827,
        "meta_eccentricity": 0.01073,
        "meta_inclination": 54.6951,
        "meta_ra_of_asc_node": 158.3926,
        "meta_arg_of_pericenter": 52.1628,
        "meta_mean_anomaly": 320.0686,
        "meta_ephemeris_type": 0,
        "meta_classification_type": "U",
        "meta_norad_cat_id": 29486,
        "meta_element_set_no": 999,
        "meta_rev_at_epoch": 14083,
        "meta_bstar": 0,
        "meta_mean_motion_dot": 7.1e-07,
        "meta_mean_motion_ddot": 0,
        "tle_line1": "1 29486U 06042A   25355.51781638  .00000071  00000+0  00000+0 0  9996",
        "tle_line2": "2 29486  54.6951 158.3926 0107300  52.1628 320.0686  2.00553827140833"
      },
      "geometry": {
        "type": "Point",
        "coordinates": [
          -43.65616128511441,
          27.887554679089895
        ]
      }
    },
    {
      "type": "Feature",
      "properties": {
        "norad_id": 29601,
        "name": "GPS BIIRM-3 (PRN 12)",
        "group": "gps-ops",
        "lat": -18.57207481836046,
        "lon": 54.68558696466174,
        "alt_km": 20282.271473296787,
        "timestamp": "2025-12-21T16:47:54.997003+00:00",
        "meta_object_name": "GPS BIIRM-3 (PRN 12)",
        "meta_object_id": "2006-052A",
        "meta_epoch": "2025-12-20T22:09:19.492992",
        "meta_mean_motion": 2.00574173,
        "meta_eccentricity": 0.0087999,
        "meta_inclination": 54.9689,
        "meta_ra_of_asc_node": 221.0734,
        "meta_arg_of_pericenter": 87.5315,
        "meta_mean_anomaly": 273.5726,
        "meta_ephemeris_type": 0,
        "meta_classification_type": "U",
        "meta_norad_cat_id": 29601,
        "meta_element_set_no": 999,
        "meta_rev_at_epoch": 13983,
        "meta_bstar": 0,
        "meta_mean_motion_dot": 7.4e-07,
        "meta_mean_motion_ddot": 0,
        "tle_line1": "1 29601U 06052A   25354.92314228  .00000074  00000+0  00000+0 0  9990",
        "tle_line2": "2 29601  54.9689 221.0734 0087999  87.5315 273.5726  2.00574173139836"
      },
      "geometry": {
        "type": "Point",
        "coordinates": [
          54.68558696466174,
          -18.57207481836046
        ]
      }
    },
    {
      "type": "Feature",
      "properties": {
        "norad_id": 32260,
        "name": "GPS BIIRM-4 (PRN 15)",
        "group": "gps-ops",
        "lat": -16.155518641979516,
        "lon": 75.2389904192033,
        "alt_km": 20293.36828621678,
        "timestamp": "2025-12-21T16:47:54.997014+00:00",
        "meta_object_name": "GPS BIIRM-4 (PRN 15)",
        "meta_object_id": "2007-047A",
        "meta_epoch": "2025-12-19T17:36:20.095488",
        "meta_mean_motion": 2.00564284,
        "meta_eccentricity": 0.01640625,
        "meta_inclination": 53.9598,
        "meta_ra_of_asc_node": 87.4696,
        "meta_arg_of_pericenter": 85.3303,
        "meta_mean_anomaly": 276.5412,
        "meta_ephemeris_type": 0,
        "meta_classification_type": "U",
        "meta_norad_cat_id": 32260,
        "meta_element_set_no": 999,
        "meta_rev_at_epoch": 13321,
        "meta_bstar": 0,
        "meta_mean_motion_dot": -3.5e-07,
        "meta_mean_motion_ddot": 0,
        "tle_line1": "1 32260U 07047A   25353.73356592 -.00000035  00000+0  00000+0 0  9996",
        "tle_line2": "2 32260  53.9598  87.4696 0164062  85.3303 276.5412  2.00564284133213"
      },
      "geometry": {
        "type": "Point",
        "coordinates": [
          75.2389904192033,
          -16.155518641979516
        ]
      }
    },
    {
      "type": "Feature",
      "properties": {
        "norad_id": 32384,
        "name": "GPS BIIRM-5 (PRN 29)",
        "group": "gps-ops",
        "lat": 50.036489726983355,
        "lon": 45.23345822063408,
        "alt_km": 20121.156689114818,
        "timestamp": "2025-12-21T16:47:54.997026+00:00",
        "meta_object_name": "GPS BIIRM-5 (PRN 29)",
        "meta_object_id": "2007-062A",
        "meta_epoch": "2025-12-19T04:08:10.010976",
        "meta_mean_motion": 2.00577702,
        "meta_eccentricity": 0.00322663,
        "meta_inclination": 55.1765,
        "meta_ra_of_asc_node": 281.388,
        "meta_arg_of_pericenter": 162.2119,
        "meta_mean_anomaly": 283.9132,
        "meta_ephemeris_type": 0,
        "meta_classification_type": "U",
        "meta_norad_cat_id": 32384,
        "meta_element_set_no": 999,
        "meta_rev_at_epoch": 13190,
        "meta_bstar": 0,
        "meta_mean_motion_dot": -3.8e-07,
        "meta_mean_motion_ddot": 0,
        "tle_line1": "1 32384U 07062A   25353.17233809 -.00000038  00000+0  00000+0 0  9996",
        "tle_line2": "2 32384  55.1765 281.3880 0032266 162.2119 283.9132  2.00577702131904"
      },
      "geometry": {
        "type": "Point",
        "coordinates": [
          45.23345822063408,
          50.036489726983355
        ]
      }
    },
    {
      "type": "Feature",
      "properties": {
        "norad_id": 32711,
        "name": "GPS BIIRM-6 (PRN 07)",
        "group": "gps-ops",
        "lat": 28.92747788406627,
        "lon": -179.73582499781935,
        "alt_km": 20648.489383954355,
        "timestamp": "2025-12-21T16:47:54.997037+00:00",
        "meta_object_name": "GPS BIIRM-6 (PRN 07)",
        "meta_object_id": "2008-012A",
        "meta_epoch": "2025-12-19T15:41:26.858112",
        "meta_mean_motion": 2.00565937,
        "meta_eccentricity": 0.0202735,
        "meta_inclination": 54.4779,
        "meta_ra_of_asc_node": 157.0969,
        "meta_arg_of_pericenter": 245.0276,
        "meta_mean_anomaly": 112.8468,
        "meta_ephemeris_type": 0,
        "meta_classification_type": "U",
        "meta_norad_cat_id": 32711,
        "meta_element_set_no": 999,
        "meta_rev_at_epoch": 13015,
        "meta_bstar": 0,
        "meta_mean_motion_dot": 6.7e-07,
        "meta_mean_motion_ddot": 0,
        "tle_line1": "1 32711U 08012A   25353.65378308  .00000067  00000+0  00000+0 0  9994",
        "tle_line2": "2 32711  54.4779 157.0969 0202735 245.0276 112.8468  2.00565937130151"
      },
      "geometry": {
        "type": "Point",
        "coordinates": [
          -179.73582499781935,
          28.92747788406627
        ]
      }
    },
    {
      "type": "Feature",
      "properties": {
        "norad_id": 35752,
        "name": "GPS BIIRM-8 (PRN 05)",
        "group": "gps-ops",
        "lat": 42.77716168657435,
        "lon": 72.90588647122058,
        "alt_km": 20054.11479663998,
        "timestamp": "2025-12-21T16:47:54.997048+00:00",
        "meta_object_name": "GPS BIIRM-8 (PRN 05)",
        "meta_object_id": "2009-043A",
        "meta_epoch": "2025-12-20T02:09:52.509312",
        "meta_mean_motion": 2.00565329,
        "meta_eccentricity": 0.00516467,
        "meta_inclination": 56.096,
        "meta_ra_of_asc_node": 34.4932,
        "meta_arg_of_pericenter": 81.7821,
        "meta_mean_anomaly": 251.1308,
        "meta_ephemeris_type": 0,
        "meta_classification_type": "U",
        "meta_norad_cat_id": 35752,
        "meta_element_set_no": 999,
        "meta_rev_at_epoch": 11976,
        "meta_bstar": 0,
        "meta_mean_motion_dot": -6.1e-07,
        "meta_mean_motion_ddot": 0,
        "tle_line1": "1 35752U 09043A   25354.09019108 -.00000061  00000+0  00000+0 0  9991",
        "tle_line2": "2 35752  56.0960  34.4932 0051646  81.7821 251.1308  2.00565329119760"
      },
      "geometry": {
        "type": "Point",
        "coordinates": [
          72.90588647122058,
          42.77716168657435
        ]
      }
    },
    {
      "type": "Feature",
      "properties": {
        "norad_id": 36585,
        "name": "GPS BIIF-1  (PRN 25)",
        "group": "gps-ops",
        "lat": 4.34388171866809,
        "lon": 32.595600249301015,
        "alt_km": 20290.985100877628,
        "timestamp": "2025-12-21T16:47:54.997059+00:00",
        "meta_object_name": "GPS BIIF-1  (PRN 25)",
        "meta_object_id": "2010-022A",
        "meta_epoch": "2025-12-21T05:24:38.676096",
        "meta_mean_motion": 2.00553675,
        "meta_eccentricity": 0.0126455,
        "meta_inclination": 54.2988,
        "meta_ra_of_asc_node": 215.7316,
        "meta_arg_of_pericenter": 65.181,
        "meta_mean_anomaly": 125.5392,
        "meta_ephemeris_type": 0,
        "meta_classification_type": "U",
        "meta_norad_cat_id": 36585,
        "meta_element_set_no": 999,
        "meta_rev_at_epoch": 11402,
        "meta_bstar": 0,
        "meta_mean_motion_dot": 7.7e-07,
        "meta_mean_motion_ddot": 0,
        "tle_line1": "1 36585U 10022A   25355.22544764  .00000077  00000+0  00000+0 0  9998",
        "tle_line2": "2 36585  54.2988 215.7316 0126455  65.1810 125.5392  2.00553675114022"
      },
      "geometry": {
        "type": "Point",
        "coordinates": [
          32.595600249301015,
          4.34388171866809
        ]
      }
    }
  ]
}